start=new Date('2022-12-30T00:00:00.000Z').valueOf();
sats=[{"DECAY_DATE":null,"OBJECT_NAME":"STARLINK-1913","ELEMENT_SET_NO":"999","RCS_SIZE":"LARGE","ECCENTRICITY":"0.00014380","EPOCH":"2022-12-29T16:37:21.566208","BSTAR":"0.00031506000000","OBJECT_ID":"2020-088BK","APOAPSIS":"548.279","REV_AT_EPOCH":"11620","GP_ID":"221746040","TIME_SYSTEM":"UTC","NORAD_CAT_ID":"47179","LAUNCH_DATE":"2020-11-25","MEAN_MOTION_DDOT":"0.0000000000000","SITE":"AFETR","TLE_LINE2":"2 47179  53.0516 145.9913 0001438  58.9453 301.1677 15.06377430116203","ARG_OF_PERICENTER":"58.9453","CLASSIFICATION_TYPE":"U","COUNTRY_CODE":"US","FILE":"3725965","MEAN_ANOMALY":"301.1677","MEAN_MOTION":"15.06377430","OBJECT_TYPE":"PAYLOAD","SEMIMAJOR_AXIS":"6925.418","INCLINATION":"53.0516","MEAN_MOTION_DOT":"0.00004412","TLE_LINE1":"1 47179U 20088BK  22363.69261072  .00004412  00000-0  31506-3 0  9994","MEAN_ELEMENT_THEORY":"SGP4","RA_OF_ASC_NODE":"145.9913","REF_FRAME":"TEME","PERIOD":"95.594","PERIAPSIS":"546.287","EPHEMERIS_TYPE":"0","CENTER_NAME":"EARTH"},{"REF_FRAME":"TEME","PERIOD":"95.593","PERIAPSIS":"546.216","CENTER_NAME":"EARTH","EPHEMERIS_TYPE":"0","OBJECT_TYPE":"PAYLOAD","SEMIMAJOR_AXIS":"6925.373","MEAN_ANOMALY":"285.9155","MEAN_MOTION":"15.06392066","TLE_LINE1":"1 47181U 20088BM  22363.66588660 -.00002332  00000-0 -13773-3 0  9996","RA_OF_ASC_NODE":"116.1136","MEAN_ELEMENT_THEORY":"SGP4","INCLINATION":"53.0541","MEAN_MOTION_DOT":"-0.00002332","NORAD_CAT_ID":"47181","MEAN_MOTION_DDOT":"0.0000000000000","LAUNCH_DATE":"2020-11-25","SITE":"AFETR","TLE_LINE2":"2 47181  53.0541 116.1136 0001475  74.1996 285.9155 15.06392066116622","GP_ID":"221745772","REV_AT_EPOCH":"11662","TIME_SYSTEM":"UTC","COUNTRY_CODE":"US","FILE":"3725965","ARG_OF_PERICENTER":"74.1996","CLASSIFICATION_TYPE":"U","ECCENTRICITY":"0.00014750","EPOCH":"2022-12-29T15:58:52.602240","DECAY_DATE":null,"OBJECT_NAME":"STARLINK-1927","RCS_SIZE":"LARGE","ELEMENT_SET_NO":"999","BSTAR":"-0.00013773000000","OBJECT_ID":"2020-088BM","APOAPSIS":"548.259"},{"MEAN_MOTION_DOT":"-0.00002635","INCLINATION":"53.0538","TLE_LINE1":"1 47350U 21005B   22363.43920503 -.00002635  00000-0 -15808-3 0  9992","RA_OF_ASC_NODE":"257.1296","MEAN_ELEMENT_THEORY":"SGP4","MEAN_ANOMALY":"289.9708","MEAN_MOTION":"15.06389889","OBJECT_TYPE":"PAYLOAD","SEMIMAJOR_AXIS":"6925.380","EPHEMERIS_TYPE":"0","CENTER_NAME":"EARTH","REF_FRAME":"TEME","PERIOD":"95.593","PERIAPSIS":"546.127","OBJECT_ID":"2021-005B","BSTAR":"-0.00015808000000","APOAPSIS":"548.362","OBJECT_NAME":"STARLINK-2011","DECAY_DATE":null,"RCS_SIZE":"LARGE","ELEMENT_SET_NO":"999","ECCENTRICITY":"0.00016140","EPOCH":"2022-12-29T10:32:27.314592","ARG_OF_PERICENTER":"70.1455","CLASSIFICATION_TYPE":"U","COUNTRY_CODE":"US","FILE":"3725790","GP_ID":"221737807","REV_AT_EPOCH":"10726","TIME_SYSTEM":"UTC","NORAD_CAT_ID":"47350","SITE":"AFETR","TLE_LINE2":"2 47350  53.0538 257.1296 0001614  70.1455 289.9708 15.06389889107267","MEAN_MOTION_DDOT":"0.0000000000000","LAUNCH_DATE":"2021-01-20"},{"PERIOD":"95.592","REF_FRAME":"TEME","PERIAPSIS":"546.407","CENTER_NAME":"EARTH","EPHEMERIS_TYPE":"0","OBJECT_TYPE":"PAYLOAD","SEMIMAJOR_AXIS":"6925.361","MEAN_ANOMALY":"277.4301","MEAN_MOTION":"15.06395988","TLE_LINE1":"1 47351U 21005C   22363.33505648  .00000105  00000-0  25937-4 0  9994","MEAN_ELEMENT_THEORY":"SGP4","RA_OF_ASC_NODE":"217.5873","INCLINATION":"53.0549","MEAN_MOTION_DOT":"0.00000105","NORAD_CAT_ID":"47351","LAUNCH_DATE":"2021-01-20","MEAN_MOTION_DDOT":"0.0000000000000","TLE_LINE2":"2 47351  53.0549 217.5873 0001183  82.6822 277.4301 15.06395988107806","SITE":"AFETR","GP_ID":"221737558","REV_AT_EPOCH":"10780","TIME_SYSTEM":"UTC","COUNTRY_CODE":"US","FILE":"3725790","ARG_OF_PERICENTER":"82.6822","CLASSIFICATION_TYPE":"U","ECCENTRICITY":"0.00011830","EPOCH":"2022-12-29T08:02:28.879872","DECAY_DATE":null,"OBJECT_NAME":"STARLINK-2017","ELEMENT_SET_NO":"999","RCS_SIZE":"LARGE","BSTAR":"0.00002593700000","OBJECT_ID":"2021-005C","APOAPSIS":"548.045"},{"APOAPSIS":"548.228","BSTAR":"-0.00012170000000","OBJECT_ID":"2021-005D","EPOCH":"2022-12-29T18:03:37.639872","ECCENTRICITY":"0.00013620","RCS_SIZE":"LARGE","ELEMENT_SET_NO":"999","DECAY_DATE":null,"OBJECT_NAME":"STARLINK-2034","FILE":"3725895","COUNTRY_CODE":"US","CLASSIFICATION_TYPE":"U","ARG_OF_PERICENTER":"81.2233","LAUNCH_DATE":"2021-01-20","MEAN_MOTION_DDOT":"0.0000000000000","TLE_LINE2":"2 47352  53.0551 255.7272 0001362  81.2233 278.8910 15.06376859107961","SITE":"AFETR","NORAD_CAT_ID":"47352","TIME_SYSTEM":"UTC","REV_AT_EPOCH":"10796","GP_ID":"221744175","RA_OF_ASC_NODE":"255.7272","MEAN_ELEMENT_THEORY":"SGP4","TLE_LINE1":"1 47352U 21005D   22363.75251898 -.00002092  00000-0 -12170-3 0  9999","INCLINATION":"53.0551","MEAN_MOTION_DOT":"-0.00002092","SEMIMAJOR_AXIS":"6925.419","OBJECT_TYPE":"PAYLOAD","MEAN_MOTION":"15.06376859","MEAN_ANOMALY":"278.8910","CENTER_NAME":"EARTH","EPHEMERIS_TYPE":"0","PERIAPSIS":"546.341","REF_FRAME":"TEME","PERIOD":"95.594"},{"APOAPSIS":"548.226","OBJECT_ID":"2021-005E","BSTAR":"0.00003892500000","ELEMENT_SET_NO":"999","RCS_SIZE":"LARGE","OBJECT_NAME":"STARLINK-2045","DECAY_DATE":null,"EPOCH":"2022-12-28T23:28:19.235424","ECCENTRICITY":"0.00014400","CLASSIFICATION_TYPE":"U","ARG_OF_PERICENTER":"77.8568","FILE":"3725790","COUNTRY_CODE":"US","TIME_SYSTEM":"UTC","GP_ID":"221737056","REV_AT_EPOCH":"10796","SITE":"AFETR","TLE_LINE2":"2 47353  53.0531 204.2046 0001440  77.8568 282.2582 15.06395107107968","LAUNCH_DATE":"2021-01-20","MEAN_MOTION_DDOT":"0.0000000000000","NORAD_CAT_ID":"47353","MEAN_MOTION_DOT":"0.00000298","INCLINATION":"53.0531","MEAN_ELEMENT_THEORY":"SGP4","RA_OF_ASC_NODE":"204.2046","TLE_LINE1":"1 47353U 21005E   22362.97800041  .00000298  00000-0  38925-4 0  9994","MEAN_MOTION":"15.06395107","MEAN_ANOMALY":"282.2582","SEMIMAJOR_AXIS":"6925.364","OBJECT_TYPE":"PAYLOAD","EPHEMERIS_TYPE":"0","CENTER_NAME":"EARTH","PERIAPSIS":"546.231","REF_FRAME":"TEME","PERIOD":"95.592"},{"REV_AT_EPOCH":"10773","GP_ID":"221737308","TIME_SYSTEM":"UTC","NORAD_CAT_ID":"47354","SITE":"AFETR","TLE_LINE2":"2 47354  53.0544 222.6381 0001408  70.4700 289.6441 15.06396967107735","LAUNCH_DATE":"2021-01-20","MEAN_MOTION_DDOT":"0.0000000000000","ARG_OF_PERICENTER":"70.4700","CLASSIFICATION_TYPE":"U","COUNTRY_CODE":"US","FILE":"3725790","OBJECT_NAME":"STARLINK-2046","DECAY_DATE":null,"RCS_SIZE":"LARGE","ELEMENT_SET_NO":"999","ECCENTRICITY":"0.00014080","EPOCH":"2022-12-29T07:44:35.430720","OBJECT_ID":"2021-005F","BSTAR":"-0.00006495100000","APOAPSIS":"548.198","REF_FRAME":"TEME","PERIOD":"95.592","PERIAPSIS":"546.248","EPHEMERIS_TYPE":"0","CENTER_NAME":"EARTH","MEAN_ANOMALY":"289.6441","MEAN_MOTION":"15.06396967","OBJECT_TYPE":"PAYLOAD","SEMIMAJOR_AXIS":"6925.358","MEAN_MOTION_DOT":"-0.00001249","INCLINATION":"53.0544","TLE_LINE1":"1 47354U 21005F   22363.32263230 -.00001249  00000-0 -64951-4 0  9995","RA_OF_ASC_NODE":"222.6381","MEAN_ELEMENT_THEORY":"SGP4"},{"ELEMENT_SET_NO":"999","RCS_SIZE":"LARGE","OBJECT_NAME":"STARLINK-2047","DECAY_DATE":null,"EPOCH":"2022-12-29T13:02:24.403200","ECCENTRICITY":"0.00013820","APOAPSIS":"548.203","OBJECT_ID":"2021-005G","BSTAR":"-0.00006838600000","TIME_SYSTEM":"UTC","REV_AT_EPOCH":"10797","GP_ID":"221738058","TLE_LINE2":"2 47355  53.0535 206.6429 0001382  71.6198 288.4941 15.06389450107973","SITE":"AFETR","MEAN_MOTION_DDOT":"0.0000000000000","LAUNCH_DATE":"2021-01-20","NORAD_CAT_ID":"47355","CLASSIFICATION_TYPE":"U","ARG_OF_PERICENTER":"71.6198","FILE":"3725790","COUNTRY_CODE":"US","MEAN_MOTION":"15.06389450","MEAN_ANOMALY":"288.4941","SEMIMAJOR_AXIS":"6925.381","OBJECT_TYPE":"PAYLOAD","MEAN_MOTION_DOT":"-0.00001300","INCLINATION":"53.0535","RA_OF_ASC_NODE":"206.6429","MEAN_ELEMENT_THEORY":"SGP4","TLE_LINE1":"1 47355U 21005G   22363.54333800 -.00001300  00000-0 -68386-4 0  9995","PERIAPSIS":"546.289","PERIOD":"95.593","REF_FRAME":"TEME","EPHEMERIS_TYPE":"0","CENTER_NAME":"EARTH"},{"CENTER_NAME":"EARTH","EPHEMERIS_TYPE":"0","PERIAPSIS":"545.325","REF_FRAME":"TEME","PERIOD":"95.592","MEAN_ELEMENT_THEORY":"SGP4","RA_OF_ASC_NODE":"227.6328","TLE_LINE1":"1 47356U 21005H   22363.32400188  .00003197  00000-0  23338-3 0  9997","INCLINATION":"53.0519","MEAN_MOTION_DOT":"0.00003197","SEMIMAJOR_AXIS":"6925.327","OBJECT_TYPE":"PAYLOAD","MEAN_MOTION":"15.06406878","MEAN_ANOMALY":"294.9318","FILE":"3725790","COUNTRY_CODE":"US","CLASSIFICATION_TYPE":"U","ARG_OF_PERICENTER":"65.1951","MEAN_MOTION_DDOT":"0.0000000000000","LAUNCH_DATE":"2021-01-20","SITE":"AFETR","TLE_LINE2":"2 47356  53.0519 227.6328 0002697  65.1951 294.9318 15.06406878107662","NORAD_CAT_ID":"47356","TIME_SYSTEM":"UTC","GP_ID":"221736307","REV_AT_EPOCH":"10766","APOAPSIS":"549.060","BSTAR":"0.00023338000000","OBJECT_ID":"2021-005H","EPOCH":"2022-12-29T07:46:33.762432","ECCENTRICITY":"0.00026970","RCS_SIZE":"LARGE","ELEMENT_SET_NO":"999","DECAY_DATE":null,"OBJECT_NAME":"STARLINK-2049"},{"ARG_OF_PERICENTER":"82.5336","CLASSIFICATION_TYPE":"U","COUNTRY_CODE":"US","FILE":"3725192","GP_ID":"221702010","REV_AT_EPOCH":"10816","TIME_SYSTEM":"UTC","NORAD_CAT_ID":"47357","LAUNCH_DATE":"2021-01-20","MEAN_MOTION_DDOT":"0.0000000000000","SITE":"AFETR","TLE_LINE2":"2 47357  53.0530 258.5056 0001337  82.5336 277.5805 15.06397875108167","BSTAR":"-0.00002927800000","OBJECT_ID":"2021-005J","APOAPSIS":"548.146","DECAY_DATE":null,"OBJECT_NAME":"STARLINK-2050","RCS_SIZE":"LARGE","ELEMENT_SET_NO":"999","ECCENTRICITY":"0.00013370","EPOCH":"2022-12-29T03:11:53.579328","EPHEMERIS_TYPE":"0","CENTER_NAME":"EARTH","REF_FRAME":"TEME","PERIOD":"95.592","PERIAPSIS":"546.294","INCLINATION":"53.0530","MEAN_MOTION_DOT":"-0.00000717","TLE_LINE1":"1 47357U 21005J   22363.13325902 -.00000717  00000-0 -29278-4 0  9994","RA_OF_ASC_NODE":"258.5056","MEAN_ELEMENT_THEORY":"SGP4","MEAN_ANOMALY":"277.5805","MEAN_MOTION":"15.06397875","OBJECT_TYPE":"PAYLOAD","SEMIMAJOR_AXIS":"6925.355"}];
